[{"OBJECT_NAME":"HELIOS 1B","OBJECT_ID":"1999-064A","EPOCH":"2026-03-13T06:41:06.826272","MEAN_MOTION":14.87715338,"ECCENTRICITY":0.00024103,"INCLINATION":98.1688,"RA_OF_ASC_NODE":334.6271,"ARG_OF_PERICENTER":70.5247,"MEAN_ANOMALY":289.6228,"EPHEMERIS_TYPE":0,"CLASSIFICATION_TYPE":"U","NORAD_CAT_ID":25977,"ELEMENT_SET_NO":999,"REV_AT_EPOCH":68579,"BSTAR":0.00024634455,"MEAN_MOTION_DOT":2.187e-5,"MEAN_MOTION_DDOT":0},{"OBJECT_NAME":"TERRA","OBJECT_ID":"1999-068A","EPOCH":"2026-03-13T15:18:45.219168","MEAN_MOTION":14.61019551,"ECCENTRICITY":0.00029332,"INCLINATION":97.9586,"RA_OF_ASC_NODE":125.9218,"ARG_OF_PERICENTER":142.4605,"MEAN_ANOMALY":18.847,"EPHEMERIS_TYPE":0,"CLASSIFICATION_TYPE":"U","NORAD_CAT_ID":25994,"ELEMENT_SET_NO":999,"REV_AT_EPOCH":39565,"BSTAR":0.00011683199,"MEAN_MOTION_DOT":5.29e-6,"MEAN_MOTION_DDOT":0},{"OBJECT_NAME":"SL-16 R/B","OBJECT_ID":"2000-006B","EPOCH":"2026-03-13T07:59:38.410944","MEAN_MOTION":14.15825076,"ECCENTRICITY":0.00165399,"INCLINATION":71.0005,"RA_OF_ASC_NODE":90.176,"ARG_OF_PERICENTER":184.8331,"MEAN_ANOMALY":175.2635,"EPHEMERIS_TYPE":0,"CLASSIFICATION_TYPE":"U","NORAD_CAT_ID":26070,"ELEMENT_SET_NO":999,"REV_AT_EPOCH":34907,"BSTAR":-7.3708334e-5,"MEAN_MOTION_DOT":-1.93e-6,"MEAN_MOTION_DDOT":0},{"OBJECT_NAME":"TITAN 4B R/B","OBJECT_ID":"2000-047B","EPOCH":"2026-03-13T11:21:24.670080","MEAN_MOTION":15.09604981,"ECCENTRICITY":0.00386742,"INCLINATION":67.9902,"RA_OF_ASC_NODE":29.8705,"ARG_OF_PERICENTER":30.9476,"MEAN_ANOMALY":329.3941,"EPHEMERIS_TYPE":0,"CLASSIFICATION_TYPE":"U","NORAD_CAT_ID":26474,"ELEMENT_SET_NO":999,"REV_AT_EPOCH":39348,"BSTAR":0.00033864781,"MEAN_MOTION_DOT":5.419e-5,"MEAN_MOTION_DDOT":0},{"OBJECT_NAME":"ENVISAT","OBJECT_ID":"2002-009A","EPOCH":"2026-03-13T09:17:54.179232","MEAN_MOTION":14.39038451,"ECCENTRICITY":0.00013243,"INCLINATION":98.3733,"RA_OF_ASC_NODE":25.8968,"ARG_OF_PERICENTER":83.1865,"MEAN_ANOMALY":85.2937,"EPHEMERIS_TYPE":0,"CLASSIFICATION_TYPE":"U","NORAD_CAT_ID":27386,"ELEMENT_SET_NO":999,"REV_AT_EPOCH":25970,"BSTAR":6.2281108e-5,"MEAN_MOTION_DOT":1.5e-6,"MEAN_MOTION_DDOT":0},{"OBJECT_NAME":"IDEFIX & ARIANE 42P R/B","OBJECT_ID":"2002-021B","EPOCH":"2026-03-13T06:31:00.896160","MEAN_MOTION":14.31029033,"ECCENTRICITY":0.00117854,"INCLINATION":98.587,"RA_OF_ASC_NODE":10.835,"ARG_OF_PERICENTER":171.5681,"MEAN_ANOMALY":188.5702,"EPHEMERIS_TYPE":0,"CLASSIFICATION_TYPE":"U","NORAD_CAT_ID":27422,"ELEMENT_SET_NO":999,"REV_AT_EPOCH":24453,"BSTAR":0.00014131721,"MEAN_MOTION_DOT":3.28e-6,"MEAN_MOTION_DDOT":0},{"OBJECT_NAME":"AQUA","OBJECT_ID":"2002-022A","EPOCH":"2026-03-13T14:19:25.101120","MEAN_MOTION":14.61987843,"ECCENTRICITY":5.928e-5,"INCLINATION":98.4179,"RA_OF_ASC_NODE":40.033,"ARG_OF_PERICENTER":95.579,"MEAN_ANOMALY":24.1351,"EPHEMERIS_TYPE":0,"CLASSIFICATION_TYPE":"U","NORAD_CAT_ID":27424,"ELEMENT_SET_NO":999,"REV_AT_EPOCH":26930,"BSTAR":0.00026128622,"MEAN_MOTION_DOT":1.26e-5,"MEAN_MOTION_DDOT":0},{"OBJECT_NAME":"CZ-4B R/B","OBJECT_ID":"2002-024C","EPOCH":"2026-03-13T15:03:28.719936","MEAN_MOTION":14.14548464,"ECCENTRICITY":0.00502938,"INCLINATION":98.8831,"RA_OF_ASC_NODE":126.0141,"ARG_OF_PERICENTER":13.0888,"MEAN_ANOMALY":140.1243,"EPHEMERIS_TYPE":0,"CLASSIFICATION_TYPE":"U","NORAD_CAT_ID":27432,"ELEMENT_SET_NO":999,"REV_AT_EPOCH":22979,"BSTAR":5.0484332e-5,"MEAN_MOTION_DOT":5.4e-7,"MEAN_MOTION_DDOT":0},{"OBJECT_NAME":"MIDORI II (ADEOS-II)","OBJECT_ID":"2002-056A","EPOCH":"2026-03-13T07:17:40.396128","MEAN_MOTION":14.2928839,"ECCENTRICITY":0.00014565,"INCLINATION":98.7772,"RA_OF_ASC_NODE":30.8065,"ARG_OF_PERICENTER":38.7795,"MEAN_ANOMALY":321.3491,"EPHEMERIS_TYPE":0,"CLASSIFICATION_TYPE":"U","NORAD_CAT_ID":27597,"ELEMENT_SET_NO":999,"REV_AT_EPOCH":21081,"BSTAR":0.00016588023,"MEAN_MOTION_DOT":3.77e-6,"MEAN_MOTION_DDOT":0},{"OBJECT_NAME":"H-2A R/B","OBJECT_ID":"2002-056E","EPOCH":"2026-03-13T08:32:09.436992","MEAN_MOTION":14.33763489,"ECCENTRICITY":0.0070728,"INCLINATION":98.3206,"RA_OF_ASC_NODE":32.5818,"ARG_OF_PERICENTER":149.807,"MEAN_ANOMALY":11.4817,"EPHEMERIS_TYPE":0,"CLASSIFICATION_TYPE":"U","NORAD_CAT_ID":27601,"ELEMENT_SET_NO":999,"REV_AT_EPOCH":21463,"BSTAR":0.00012528284,"MEAN_MOTION_DOT":3.17e-6,"MEAN_MOTION_DDOT":0},{"OBJECT_NAME":"CZ-4B R/B","OBJECT_ID":"2003-049C","EPOCH":"2026-03-13T10:34:46.870464","MEAN_MOTION":14.55024203,"ECCENTRICITY":0.00473992,"INCLINATION":98.688,"RA_OF_ASC_NODE":67.4928,"ARG_OF_PERICENTER":219.2185,"MEAN_ANOMALY":140.5574,"EPHEMERIS_TYPE":0,"CLASSIFICATION_TYPE":"U","NORAD_CAT_ID":28059,"ELEMENT_SET_NO":999,"REV_AT_EPOCH":18714,"BSTAR":0.00011573354,"MEAN_MOTION_DOT":4.54e-6,"MEAN_MOTION_DDOT":0},{"OBJECT_NAME":"CZ-2C R/B","OBJECT_ID":"2004-012C","EPOCH":"2026-03-13T03:02:05.447616","MEAN_MOTION":15.64944388,"ECCENTRICITY":0.00129338,"INCLINATION":97.7223,"RA_OF_ASC_NODE":137.7453,"ARG_OF_PERICENTER":295.2646,"MEAN_ANOMALY":64.7272,"EPHEMERIS_TYPE":0,"CLASSIFICATION_TYPE":"U","NORAD_CAT_ID":28222,"ELEMENT_SET_NO":999,"REV_AT_EPOCH":20481,"BSTAR":0.00060765345,"MEAN_MOTION_DOT":0.00059904,"MEAN_MOTION_DDOT":0},{"OBJECT_NAME":"SL-16 R/B","OBJECT_ID":"2004-021B","EPOCH":"2026-03-13T10:00:21.351456","MEAN_MOTION":14.14596418,"ECCENTRICITY":0.0004293,"INCLINATION":70.9996,"RA_OF_ASC_NODE":224.6701,"ARG_OF_PERICENTER":3.8877,"MEAN_ANOMALY":356.2278,"EPHEMERIS_TYPE":0,"CLASSIFICATION_TYPE":"U","NORAD_CAT_ID":28353,"ELEMENT_SET_NO":999,"REV_AT_EPOCH":12336,"BSTAR":-0.00012158589,"MEAN_MOTION_DOT":-2.81e-6,"MEAN_MOTION_DDOT":0},{"OBJECT_NAME":"CZ-4B R/B","OBJECT_ID":"2004-035C","EPOCH":"2026-03-13T01:12:29.860704","MEAN_MOTION":15.2912734,"ECCENTRICITY":0.00306741,"INCLINATION":97.3502,"RA_OF_ASC_NODE":106.2529,"ARG_OF_PERICENTER":319.1566,"MEAN_ANOMALY":40.7375,"EPHEMERIS_TYPE":0,"CLASSIFICATION_TYPE":"U","NORAD_CAT_ID":28415,"ELEMENT_SET_NO":999,"REV_AT_EPOCH":18042,"BSTAR":0.00031306751,"MEAN_MOTION_DOT":8.901e-5,"MEAN_MOTION_DDOT":0},{"OBJECT_NAME":"CZ-2C R/B","OBJECT_ID":"2004-046B","EPOCH":"2026-03-13T06:31:39.688032","MEAN_MOTION":14.26993446,"ECCENTRICITY":0.01400767,"INCLINATION":98.1981,"RA_OF_ASC_NODE":347.033,"ARG_OF_PERICENTER":143.8905,"MEAN_ANOMALY":217.1837,"EPHEMERIS_TYPE":0,"CLASSIFICATION_TYPE":"U","NORAD_CAT_ID":28480,"ELEMENT_SET_NO":999,"REV_AT_EPOCH":10901,"BSTAR":6.6337767e-5,"MEAN_MOTION_DOT":1.39e-6,"MEAN_MOTION_DDOT":0},{"OBJECT_NAME":"ARIANE 5 R/B","OBJECT_ID":"2004-049H","EPOCH":"2026-03-13T11:20:36.070944","MEAN_MOTION":14.8527367,"ECCENTRICITY":0.00836693,"INCLINATION":98.2632,"RA_OF_ASC_NODE":241.0713,"ARG_OF_PERICENTER":339.6305,"MEAN_ANOMALY":20.1578,"EPHEMERIS_TYPE":0,"CLASSIFICATION_TYPE":"U","NORAD_CAT_ID":28499,"ELEMENT_SET_NO":999,"REV_AT_EPOCH":14635,"BSTAR":0.00010454232,"MEAN_MOTION_DOT":8.9e-6,"MEAN_MOTION_DDOT":0},{"OBJECT_NAME":"CZ-2D R/B","OBJECT_ID":"2005-024B","EPOCH":"2026-03-13T11:50:06.482976","MEAN_MOTION":15.60514072,"ECCENTRICITY":0.00052146,"INCLINATION":97.3596,"RA_OF_ASC_NODE":87.7799,"ARG_OF_PERICENTER":37.0057,"MEAN_ANOMALY":323.1559,"EPHEMERIS_TYPE":0,"CLASSIFICATION_TYPE":"U","NORAD_CAT_ID":28738,"ELEMENT_SET_NO":999,"REV_AT_EPOCH":14037,"BSTAR":0.00056863087,"MEAN_MOTION_DOT":0.00046944,"MEAN_MOTION_DDOT":0}]
